{"type": "FeatureCollection", "features": [ {"type": "Feature", "properties": {"norad_id": 41556, "name": "ZIYUAN 3-02 (ZY 3-02)", "group": "resource", "lat": 37.217818443270374, "lon": -103.84623503404525, "alt_km": 496.6860393561292, "timestamp": "2025-12-22T11:33:20.086751+00:00", "meta": {"OBJECT_NAME": "ZIYUAN 3-02 (ZY 3-02)", "OBJECT_ID": "2016-033A", "EPOCH": "2025-12-22T04:36:58.549248", "MEAN_MOTION": 15.211812, "ECCENTRICITY": 0.0011178, "INCLINATION": 97.4033, "RA_OF_ASC_NODE": 70.2018, "ARG_OF_PERICENTER": 210.6375, "MEAN_ANOMALY": 149.4209, "EPHEMERIS_TYPE": 0, "CLASSIFICATION_TYPE": "U", "NORAD_CAT_ID": 41556, "ELEMENT_SET_NO": 999, "REV_AT_EPOCH": 53107, "BSTAR": 0.00034746, "MEAN_MOTION_DOT": 7.691e-05, "MEAN_MOTION_DDOT": 0}, "tle": {"line1": "1 41556U 16033A   25356.19234432  .00007691  00000+0  34746-3 0  9992", "line2": "2 41556  97.4033  70.2018 0011178 210.6375 149.4209 15.21181200531075"}}, "geometry": {"type": "Point", "coordinates": [-103.84623503404525, 37.217818443270374]}}, {"type": "Feature", "properties": {"norad_id": 41599, "name": "CARTOSAT-2C", "group": "resource", "lat": 13.573752136889096, "lon": 51.81414266801891, "alt_km": 502.2396753160401, "timestamp": "2025-12-22T11:33:20.086761+00:00", "meta": {"OBJECT_NAME": "CARTOSAT-2C", "OBJECT_ID": "2016-040A", "EPOCH": "2025-12-21T18:06:24.688224", "MEAN_MOTION": 15.19188008, "ECCENTRICITY": 0.0011021, "INCLINATION": 97.4756, "RA_OF_ASC_NODE": 52.9115, "ARG_OF_PERICENTER": 34.9019, "MEAN_ANOMALY": 325.2936, "EPHEMERIS_TYPE": 0, "CLASSIFICATION_TYPE": "U", "NORAD_CAT_ID": 41599, "ELEMENT_SET_NO": 999, "REV_AT_EPOCH": 52677, "BSTAR": 0.00012803, "MEAN_MOTION_DOT": 2.628e-05, "MEAN_MOTION_DDOT": 0}, "tle": {"line1": "1 41599U 16040A   25355.75445241  .00002628  00000+0  12803-3 0  9995", "line2": "2 41599  97.4756  52.9115 0011021  34.9019 325.2936 15.19188008526770"}}, "geometry": {"type": "Point", "coordinates": [51.81414266801891, 13.573752136889096]}}, {"type": "Feature", "properties": {"norad_id": 41601, "name": "SKYSAT-C1", "group": "resource", "lat": -0.3720594614807059, "lon": -147.09959765645368, "alt_km": 471.5883140821679, "timestamp": "2025-12-22T11:33:20.086771+00:00", "meta": {"OBJECT_NAME": "SKYSAT-C1", "OBJECT_ID": "2016-040C", "EPOCH": "2025-12-22T01:22:14.024064", "MEAN_MOTION": 15.3274689, "ECCENTRICITY": 0.0001289, "INCLINATION": 96.9807, "RA_OF_ASC_NODE": 32.5455, "ARG_OF_PERICENTER": 340.6594, "MEAN_ANOMALY": 19.46, "EPHEMERIS_TYPE": 0, "CLASSIFICATION_TYPE": "U", "NORAD_CAT_ID": 41601, "ELEMENT_SET_NO": 999, "REV_AT_EPOCH": 53070, "BSTAR": 0.00031058, "MEAN_MOTION_DOT": 9.752e-05, "MEAN_MOTION_DDOT": 0}, "tle": {"line1": "1 41601U 16040C   25356.05710676  .00009752  00000+0  31058-3 0  9998", "line2": "2 41601  96.9807  32.5455 0001289 340.6594  19.4600 15.32746890530708"}}, "geometry": {"type": "Point", "coordinates": [-147.09959765645368, -0.3720594614807059]}}, {"type": "Feature", "properties": {"norad_id": 41603, "name": "LAPAN-A3", "group": "resource", "lat": -72.46643018535048, "lon": 17.06866681513356, "alt_km": 472.3172803763173, "timestamp": "2025-12-22T11:33:20.086782+00:00", "meta": {"OBJECT_NAME": "LAPAN-A3", "OBJECT_ID": "2016-040E", "EPOCH": "2025-12-22T05:36:20.340864", "MEAN_MOTION": 15.31624392, "ECCENTRICITY": 0.0008805, "INCLINATION": 97.1427, "RA_OF_ASC_NODE": 353.4444, "ARG_OF_PERICENTER": 294.9697, "MEAN_ANOMALY": 65.063, "EPHEMERIS_TYPE": 0, "CLASSIFICATION_TYPE": "U", "NORAD_CAT_ID": 41603, "ELEMENT_SET_NO": 999, "REV_AT_EPOCH": 52771, "BSTAR": 0.00014312, "MEAN_MOTION_DOT": 4.3e-05, "MEAN_MOTION_DDOT": 0}, "tle": {"line1": "1 41603U 16040E   25356.23356876  .00004300  00000+0  14312-3 0  9996", "line2": "2 41603  97.1427 353.4444 0008805 294.9697  65.0630 15.31624392527718"}}, "geometry": {"type": "Point", "coordinates": [17.06866681513356, -72.46643018535048]}}, {"type": "Feature", "properties": {"norad_id": 41604, "name": "BIROS", "group": "resource", "lat": 49.13733587942628, "lon": 20.084614160210222, "alt_km": 287.991298038949, "timestamp": "2025-12-22T11:33:20.086792+00:00", "meta": {"OBJECT_NAME": "BIROS", "OBJECT_ID": "2016-040F", "EPOCH": "2025-12-21T20:16:27.693408", "MEAN_MOTION": 15.93143853, "ECCENTRICITY": 0.0003713, "INCLINATION": 97.0682, "RA_OF_ASC_NODE": 27.6655, "ARG_OF_PERICENTER": 133.3571, "MEAN_ANOMALY": 226.8015, "EPHEMERIS_TYPE": 0, "CLASSIFICATION_TYPE": "U", "NORAD_CAT_ID": 41604, "ELEMENT_SET_NO": 999, "REV_AT_EPOCH": 53017, "BSTAR": 0.00065293, "MEAN_MOTION_DOT": 0.00227507, "MEAN_MOTION_DDOT": 2.1446e-05}, "tle": {"line1": "1 41604U 16040F   25355.84476497  .00227507  21446-4  65293-3 0  9997", "line2": "2 41604  97.0682  27.6655 0003713 133.3571 226.8015 15.93143853530179"}}, "geometry": {"type": "Point", "coordinates": [20.084614160210222, 49.13733587942628]}}, {"type": "Feature", "properties": {"norad_id": 41727, "name": "GAOFEN-3", "group": "resource", "lat": 5.334708296567425, "lon": -177.29008793112783, "alt_km": 753.831872152281, "timestamp": "2025-12-22T11:33:20.086802+00:00", "meta": {"OBJECT_NAME": "GAOFEN-3", "OBJECT_ID": "2016-049A", "EPOCH": "2025-12-22T04:05:20.037984", "MEAN_MOTION": 14.42215807, "ECCENTRICITY": 0.0001206, "INCLINATION": 98.4031, "RA_OF_ASC_NODE": 1.6127, "ARG_OF_PERICENTER": 56.722, "MEAN_ANOMALY": 303.4085, "EPHEMERIS_TYPE": 0, "CLASSIFICATION_TYPE": "U", "NORAD_CAT_ID": 41727, "ELEMENT_SET_NO": 999, "REV_AT_EPOCH": 49313, "BSTAR": 3.1143e-05, "MEAN_MOTION_DOT": 5.9e-07, "MEAN_MOTION_DDOT": 0}, "tle": {"line1": "1 41727U 16049A   25356.17037081  .00000059  00000+0  31143-4 0  9998", "line2": "2 41727  98.4031   1.6127 0001206  56.7220 303.4085 14.42215807493133"}}, "geometry": {"type": "Point", "coordinates": [-177.29008793112783, 5.334708296567425]}}, {"type": "Feature", "properties": {"norad_id": 41771, "name": "SKYSAT-C4", "group": "resource", "lat": 81.20258558443773, "lon": -106.93404647313797, "alt_km": 429.93611736011644, "timestamp": "2025-12-22T11:33:20.086813+00:00", "meta": {"OBJECT_NAME": "SKYSAT-C4", "OBJECT_ID": "2016-058B", "EPOCH": "2025-12-22T01:48:06.894720", "MEAN_MOTION": 15.42499501, "ECCENTRICITY": 0.000231, "INCLINATION": 96.936, "RA_OF_ASC_NODE": 20.8093, "ARG_OF_PERICENTER": 127.7671, "MEAN_ANOMALY": 232.3787, "EPHEMERIS_TYPE": 0, "CLASSIFICATION_TYPE": "U", "NORAD_CAT_ID": 41771, "ELEMENT_SET_NO": 999, "REV_AT_EPOCH": 51811, "BSTAR": 0.00035887, "MEAN_MOTION_DOT": 0.00015486, "MEAN_MOTION_DDOT": 0}, "tle": {"line1": "1 41771U 16058B   25356.07507980  .00015486  00000+0  35887-3 0  9994", "line2": "2 41771  96.9360  20.8093 0002310 127.7671 232.3787 15.42499501518112"}}, "geometry": {"type": "Point", "coordinates": [-106.93404647313797, 81.20258558443773]}}, {"type": "Feature", "properties": {"norad_id": 41772, "name": "SKYSAT-C5", "group": "resource", "lat": 77.36570039556509, "lon": 6.183129673812761, "alt_km": 459.06119336751, "timestamp": "2025-12-22T11:33:20.086823+00:00", "meta": {"OBJECT_NAME": "SKYSAT-C5", "OBJECT_ID": "2016-058C", "EPOCH": "2025-12-22T01:49:00.968160", "MEAN_MOTION": 15.34032906, "ECCENTRICITY": 0.0003815, "INCLINATION": 97.0741, "RA_OF_ASC_NODE": 39.4372, "ARG_OF_PERICENTER": 246.7757, "MEAN_ANOMALY": 113.3085, "EPHEMERIS_TYPE": 0, "CLASSIFICATION_TYPE": "U", "NORAD_CAT_ID": 41772, "ELEMENT_SET_NO": 999, "REV_AT_EPOCH": 51659, "BSTAR": 0.00030067, "MEAN_MOTION_DOT": 9.83e-05, "MEAN_MOTION_DDOT": 0}, "tle": {"line1": "1 41772U 16058C   25356.07570565  .00009830  00000+0  30067-3 0  9995", "line2": "2 41772  97.0741  39.4372 0003815 246.7757 113.3085 15.34032906516594"}}, "geometry": {"type": "Point", "coordinates": [6.183129673812761, 77.36570039556509]}}, {"type": "Feature", "properties": {"norad_id": 41773, "name": "SKYSAT-C2", "group": "resource", "lat": -24.787503928406352, "lon": -162.6733218343248, "alt_km": 461.3312934748319, "timestamp": "2025-12-22T11:33:20.086832+00:00", "meta": {"OBJECT_NAME": "SKYSAT-C2", "OBJECT_ID": "2016-058D", "EPOCH": "2025-12-21T23:43:58.697184", "MEAN_MOTION": 15.3746531, "ECCENTRICITY": 0.0003189, "INCLINATION": 97.0345, "RA_OF_ASC_NODE": 20.1239, "ARG_OF_PERICENTER": 7.6528, "MEAN_ANOMALY": 352.4765, "EPHEMERIS_TYPE": 0, "CLASSIFICATION_TYPE": "U", "NORAD_CAT_ID": 41773, "ELEMENT_SET_NO": 999, "REV_AT_EPOCH": 51778, "BSTAR": 0.0003127, "MEAN_MOTION_DOT": 0.00011417, "MEAN_MOTION_DDOT": 0}, "tle": {"line1": "1 41773U 16058D   25355.98887381  .00011417  00000+0  31270-3 0  9993", "line2": "2 41773  97.0345  20.1239 0003189   7.6528 352.4765 15.37465310517783"}}, "geometry": {"type": "Point", "coordinates": [-162.6733218343248, -24.787503928406352]}}, {"type": "Feature", "properties": {"norad_id": 41774, "name": "SKYSAT-C3", "group": "resource", "lat": -73.44774177453448, "lon": 53.92730826554759, "alt_km": 440.9305889474981, "timestamp": "2025-12-22T11:33:20.086842+00:00", "meta": {"OBJECT_NAME": "SKYSAT-C3", "OBJECT_ID": "2016-058E", "EPOCH": "2025-12-22T02:33:05.139072", "MEAN_MOTION": 15.44711366, "ECCENTRICITY": 0.0002057, "INCLINATION": 96.9285, "RA_OF_ASC_NODE": 29.4174, "ARG_OF_PERICENTER": 107.2334, "MEAN_ANOMALY": 252.9141, "EPHEMERIS_TYPE": 0, "CLASSIFICATION_TYPE": "U", "NORAD_CAT_ID": 41774, "ELEMENT_SET_NO": 999, "REV_AT_EPOCH": 51870, "BSTAR": 0.0004243, "MEAN_MOTION_DOT": 0.00019752, "MEAN_MOTION_DDOT": 0}, "tle": {"line1": "1 41774U 16058E   25356.10630948  .00019752  00000+0  42430-3 0  9994", "line2": "2 41774  96.9285  29.4174 0002057 107.2334 252.9141 15.44711366518708"}}, "geometry": {"type": "Point", "coordinates": [53.92730826554759, -73.44774177453448]}}]}